[{"OBJECT_NAME":"IRIDIUM 124","OBJECT_ID":"2017-039H","EPOCH":"2026-04-04T21:48:18.737280","MEAN_MOTION":14.4329535,"ECCENTRICITY":0.00021471,"INCLINATION":86.4487,"RA_OF_ASC_NODE":321.0205,"ARG_OF_PERICENTER":88.6357,"MEAN_ANOMALY":271.509,"EPHEMERIS_TYPE":0,"CLASSIFICATION_TYPE":"U","NORAD_CAT_ID":42810,"ELEMENT_SET_NO":999,"REV_AT_EPOCH":46454,"BSTAR":0.0001355088,"MEAN_MOTION_DOT":4.76e-6,"MEAN_MOTION_DDOT":0},{"OBJECT_NAME":"IRIDIUM 128","OBJECT_ID":"2017-039J","EPOCH":"2026-04-04T21:10:42.625056","MEAN_MOTION":14.34219269,"ECCENTRICITY":0.00024196,"INCLINATION":86.3957,"RA_OF_ASC_NODE":55.7847,"ARG_OF_PERICENTER":89.2736,"MEAN_ANOMALY":270.8737,"EPHEMERIS_TYPE":0,"CLASSIFICATION_TYPE":"U","NORAD_CAT_ID":42811,"ELEMENT_SET_NO":999,"REV_AT_EPOCH":45947,"BSTAR":0.00011342996,"MEAN_MOTION_DOT":3.37e-6,"MEAN_MOTION_DDOT":0},{"OBJECT_NAME":"IRIDIUM 121","OBJECT_ID":"2017-039K","EPOCH":"2026-04-04T18:30:30.656160","MEAN_MOTION":14.342183,"ECCENTRICITY":0.00022348,"INCLINATION":86.4015,"RA_OF_ASC_NODE":24.3424,"ARG_OF_PERICENTER":83.8672,"MEAN_ANOMALY":276.2779,"EPHEMERIS_TYPE":0,"CLASSIFICATION_TYPE":"U","NORAD_CAT_ID":42812,"ELEMENT_SET_NO":999,"REV_AT_EPOCH":45930,"BSTAR":5.697264e-6,"MEAN_MOTION_DOT":3.6e-7,"MEAN_MOTION_DDOT":0},{"OBJECT_NAME":"IRIDIUM 133","OBJECT_ID":"2017-061A","EPOCH":"2026-04-04T21:56:22.684416","MEAN_MOTION":14.3421839,"ECCENTRICITY":0.00022329,"INCLINATION":86.3958,"RA_OF_ASC_NODE":55.8875,"ARG_OF_PERICENTER":88.453,"MEAN_ANOMALY":271.6921,"EPHEMERIS_TYPE":0,"CLASSIFICATION_TYPE":"U","NORAD_CAT_ID":42955,"ELEMENT_SET_NO":999,"REV_AT_EPOCH":44427,"BSTAR":6.217485e-5,"MEAN_MOTION_DOT":1.94e-6,"MEAN_MOTION_DDOT":0},{"OBJECT_NAME":"IRIDIUM 100","OBJECT_ID":"2017-061B","EPOCH":"2026-04-04T21:47:14.684640","MEAN_MOTION":14.34217685,"ECCENTRICITY":0.00022096,"INCLINATION":86.3953,"RA_OF_ASC_NODE":55.8101,"ARG_OF_PERICENTER":89.2854,"MEAN_ANOMALY":270.8595,"EPHEMERIS_TYPE":0,"CLASSIFICATION_TYPE":"U","NORAD_CAT_ID":42956,"ELEMENT_SET_NO":999,"REV_AT_EPOCH":44427,"BSTAR":1.457562e-6,"MEAN_MOTION_DOT":2.4e-7,"MEAN_MOTION_DDOT":0},{"OBJECT_NAME":"IRIDIUM 122","OBJECT_ID":"2017-061C","EPOCH":"2026-04-04T21:01:34.630464","MEAN_MOTION":14.34217633,"ECCENTRICITY":0.00021855,"INCLINATION":86.3959,"RA_OF_ASC_NODE":55.8237,"ARG_OF_PERICENTER":88.8624,"MEAN_ANOMALY":271.2822,"EPHEMERIS_TYPE":0,"CLASSIFICATION_TYPE":"U","NORAD_CAT_ID":42957,"ELEMENT_SET_NO":999,"REV_AT_EPOCH":44427,"BSTAR":6.1790415e-5,"MEAN_MOTION_DOT":1.93e-6,"MEAN_MOTION_DDOT":0},{"OBJECT_NAME":"IRIDIUM 129","OBJECT_ID":"2017-061D","EPOCH":"2026-04-04T21:38:06.495648","MEAN_MOTION":14.34219388,"ECCENTRICITY":0.00020631,"INCLINATION":86.3957,"RA_OF_ASC_NODE":55.8792,"ARG_OF_PERICENTER":79.1845,"MEAN_ANOMALY":280.9583,"EPHEMERIS_TYPE":0,"CLASSIFICATION_TYPE":"U","NORAD_CAT_ID":42958,"ELEMENT_SET_NO":999,"REV_AT_EPOCH":44429,"BSTAR":0.00012245177,"MEAN_MOTION_DOT":3.63e-6,"MEAN_MOTION_DDOT":0},{"OBJECT_NAME":"IRIDIUM 119","OBJECT_ID":"2017-061E","EPOCH":"2026-04-04T22:32:54.692160","MEAN_MOTION":14.34217523,"ECCENTRICITY":0.00020555,"INCLINATION":86.3961,"RA_OF_ASC_NODE":55.8589,"ARG_OF_PERICENTER":87.036,"MEAN_ANOMALY":273.1071,"EPHEMERIS_TYPE":0,"CLASSIFICATION_TYPE":"U","NORAD_CAT_ID":42959,"ELEMENT_SET_NO":999,"REV_AT_EPOCH":44431,"BSTAR":-1.132676e-6,"MEAN_MOTION_DOT":1.7e-7,"MEAN_MOTION_DDOT":0},{"OBJECT_NAME":"IRIDIUM 107","OBJECT_ID":"2017-061F","EPOCH":"2026-04-04T19:39:23.592384","MEAN_MOTION":14.34215065,"ECCENTRICITY":0.00022059,"INCLINATION":86.3959,"RA_OF_ASC_NODE":55.93,"ARG_OF_PERICENTER":94.6437,"MEAN_ANOMALY":265.501,"EPHEMERIS_TYPE":0,"CLASSIFICATION_TYPE":"U","NORAD_CAT_ID":42960,"ELEMENT_SET_NO":999,"REV_AT_EPOCH":44430,"BSTAR":0.00016006404,"MEAN_MOTION_DOT":4.68e-6,"MEAN_MOTION_DDOT":0},{"OBJECT_NAME":"IRIDIUM 132","OBJECT_ID":"2017-061G","EPOCH":"2026-04-04T21:28:58.605600","MEAN_MOTION":14.34219413,"ECCENTRICITY":0.00022419,"INCLINATION":86.3958,"RA_OF_ASC_NODE":55.8782,"ARG_OF_PERICENTER":88.9179,"MEAN_ANOMALY":271.2273,"EPHEMERIS_TYPE":0,"CLASSIFICATION_TYPE":"U","NORAD_CAT_ID":42961,"ELEMENT_SET_NO":999,"REV_AT_EPOCH":44431,"BSTAR":0.00014314222,"MEAN_MOTION_DOT":4.21e-6,"MEAN_MOTION_DDOT":0},{"OBJECT_NAME":"IRIDIUM 136","OBJECT_ID":"2017-061H","EPOCH":"2026-04-04T22:14:38.565600","MEAN_MOTION":14.34219183,"ECCENTRICITY":0.00021224,"INCLINATION":86.3958,"RA_OF_ASC_NODE":55.8713,"ARG_OF_PERICENTER":88.9453,"MEAN_ANOMALY":271.1986,"EPHEMERIS_TYPE":0,"CLASSIFICATION_TYPE":"U","NORAD_CAT_ID":42962,"ELEMENT_SET_NO":999,"REV_AT_EPOCH":44433,"BSTAR":9.20843e-5,"MEAN_MOTION_DOT":2.78e-6,"MEAN_MOTION_DDOT":0},{"OBJECT_NAME":"IRIDIUM 139","OBJECT_ID":"2017-061J","EPOCH":"2026-04-04T22:23:46.192992","MEAN_MOTION":14.34213914,"ECCENTRICITY":0.00022743,"INCLINATION":86.3959,"RA_OF_ASC_NODE":55.9294,"ARG_OF_PERICENTER":89.3075,"MEAN_ANOMALY":270.8381,"EPHEMERIS_TYPE":0,"CLASSIFICATION_TYPE":"U","NORAD_CAT_ID":42963,"ELEMENT_SET_NO":999,"REV_AT_EPOCH":44434,"BSTAR":0.0001159143,"MEAN_MOTION_DOT":3.44e-6,"MEAN_MOTION_DDOT":0},{"OBJECT_NAME":"IRIDIUM 125","OBJECT_ID":"2017-061K","EPOCH":"2026-04-04T22:05:30.595200","MEAN_MOTION":14.34217412,"ECCENTRICITY":0.00016361,"INCLINATION":86.3956,"RA_OF_ASC_NODE":55.9948,"ARG_OF_PERICENTER":97.7151,"MEAN_ANOMALY":262.423,"EPHEMERIS_TYPE":0,"CLASSIFICATION_TYPE":"U","NORAD_CAT_ID":42964,"ELEMENT_SET_NO":999,"REV_AT_EPOCH":44435,"BSTAR":-8.80005e-7,"MEAN_MOTION_DOT":1.7e-7,"MEAN_MOTION_DDOT":0},{"OBJECT_NAME":"IRIDIUM 135","OBJECT_ID":"2017-083A","EPOCH":"2026-04-04T23:08:43.105056","MEAN_MOTION":14.34218788,"ECCENTRICITY":0.00022062,"INCLINATION":86.4017,"RA_OF_ASC_NODE":352.626,"ARG_OF_PERICENTER":85.31,"MEAN_ANOMALY":274.8348,"EPHEMERIS_TYPE":0,"CLASSIFICATION_TYPE":"U","NORAD_CAT_ID":43070,"ELEMENT_SET_NO":999,"REV_AT_EPOCH":43365,"BSTAR":6.3397985e-5,"MEAN_MOTION_DOT":1.97e-6,"MEAN_MOTION_DDOT":0},{"OBJECT_NAME":"IRIDIUM 138","OBJECT_ID":"2017-083B","EPOCH":"2026-04-04T18:43:51.051072","MEAN_MOTION":14.34218546,"ECCENTRICITY":0.0001806,"INCLINATION":86.4031,"RA_OF_ASC_NODE":352.3874,"ARG_OF_PERICENTER":82.3504,"MEAN_ANOMALY":277.7897,"EPHEMERIS_TYPE":0,"CLASSIFICATION_TYPE":"U","NORAD_CAT_ID":43071,"ELEMENT_SET_NO":999,"REV_AT_EPOCH":43361,"BSTAR":5.5446031e-5,"MEAN_MOTION_DOT":1.75e-6,"MEAN_MOTION_DDOT":0},{"OBJECT_NAME":"IRIDIUM 116","OBJECT_ID":"2017-083C","EPOCH":"2026-04-04T22:59:35.154528","MEAN_MOTION":14.34218823,"ECCENTRICITY":0.00024018,"INCLINATION":86.4015,"RA_OF_ASC_NODE":352.6156,"ARG_OF_PERICENTER":87.2819,"MEAN_ANOMALY":272.8652,"EPHEMERIS_TYPE":0,"CLASSIFICATION_TYPE":"U","NORAD_CAT_ID":43072,"ELEMENT_SET_NO":999,"REV_AT_EPOCH":43367,"BSTAR":0.00012733315,"MEAN_MOTION_DOT":3.76e-6,"MEAN_MOTION_DDOT":0},{"OBJECT_NAME":"IRIDIUM 130","OBJECT_ID":"2017-083D","EPOCH":"2026-04-04T18:52:59.150208","MEAN_MOTION":14.3421841,"ECCENTRICITY":0.0002279,"INCLINATION":86.4025,"RA_OF_ASC_NODE":352.955,"ARG_OF_PERICENTER":91.6645,"MEAN_ANOMALY":268.4812,"EPHEMERIS_TYPE":0,"CLASSIFICATION_TYPE":"U","NORAD_CAT_ID":43073,"ELEMENT_SET_NO":999,"REV_AT_EPOCH":43359,"BSTAR":5.4828e-5,"MEAN_MOTION_DOT":1.73e-6,"MEAN_MOTION_DDOT":0}]
