IRIDIUM 124             
1 42810U 17039H   26094.90855020  .00000476  00000+0  13551-3 0  9999
2 42810  86.4487 321.0205 0002147  88.6357 271.5090 14.43295350464541
IRIDIUM 128             
1 42811U 17039J   26094.88243779  .00000337  00000+0  11343-3 0  9992
2 42811  86.3957  55.7847 0002419  89.2736 270.8737 14.34219269459477
IRIDIUM 121             
1 42812U 17039K   26094.77118815  .00000036  00000+0  56973-5 0  9999
2 42812  86.4015  24.3424 0002234  83.8672 276.2779 14.34218300459304
IRIDIUM 133             
1 42955U 17061A   26094.91415144  .00000194  00000+0  62175-4 0  9998
2 42955  86.3958  55.8875 0002232  88.4530 271.6921 14.34218390444275
IRIDIUM 100             
1 42956U 17061B   26094.90780885  .00000024  00000+0  14576-5 0  9990
2 42956  86.3953  55.8101 0002209  89.2854 270.8595 14.34217685444279
IRIDIUM 122             
1 42957U 17061C   26094.87609526  .00000193  00000+0  61790-4 0  9995
2 42957  86.3959  55.8237 0002185  88.8624 271.2822 14.34217633444270
IRIDIUM 129             
1 42958U 17061D   26094.90146407  .00000363  00000+0  12245-3 0  9993
2 42958  86.3957  55.8792 0002063  79.1845 280.9583 14.34219388444290
IRIDIUM 119             
1 42959U 17061E   26094.93952190  .00000017  00000+0 -11327-5 0  9990
2 42959  86.3961  55.8589 0002055  87.0360 273.1071 14.34217523444319
IRIDIUM 107             
1 42960U 17061F   26094.81902306  .00000468  00000+0  16006-3 0  9999
2 42960  86.3959  55.9300 0002205  94.6437 265.5010 14.34215065444302
IRIDIUM 132             
1 42961U 17061G   26094.89512275  .00000421  00000+0  14314-3 0  9999
2 42961  86.3958  55.8782 0002241  88.9179 271.2273 14.34219413444311
IRIDIUM 136             
1 42962U 17061H   26094.92683525  .00000278  00000+0  92084-4 0  9992
2 42962  86.3958  55.8713 0002122  88.9453 271.1986 14.34219183444335
IRIDIUM 139             
1 42963U 17061J   26094.93317353  .00000344  00000+0  11591-3 0  9994
2 42963  86.3959  55.9294 0002274  89.3075 270.8381 14.34213914444347
IRIDIUM 125             
1 42964U 17061K   26094.92049300  .00000017  00000+0 -88001-6 0  9999
2 42964  86.3956  55.9948 0001636  97.7151 262.4230 14.34217412444358
IRIDIUM 135             
1 43070U 17083A   26094.96438779  .00000197  00000+0  63398-4 0  9996
2 43070  86.4017 352.6260 0002206  85.3100 274.8348 14.34218788433656
IRIDIUM 138             
1 43071U 17083B   26094.78045198  .00000175  00000+0  55446-4 0  9997
2 43071  86.4031 352.3874 0001806  82.3504 277.7897 14.34218546433610
IRIDIUM 116             
1 43072U 17083C   26094.95804577  .00000376  00000+0  12733-3 0  9995
2 43072  86.4015 352.6156 0002401  87.2819 272.8652 14.34218823433673
IRIDIUM 130             
1 43073U 17083D   26094.78679572  .00000173  00000+0  54828-4 0  9999
2 43073  86.4025 352.9550 0002279  91.6645 268.4812 14.34218410433597
